IRIDIUM 112             
1 41925U 17003J   25228.66372933  .00000048  00000+0  10082-4 0  9996
2 41925  86.3963 215.4915 0002300  85.9602 274.1856 14.34217770449624
IRIDIUM 111             
1 41926U 17003K   25229.41849698  .00000037  00000+0  63138-5 0  9997
2 41926  86.3966 215.2398 0002229  91.8805 268.2646 14.34217595449785
IRIDIUM 113             
1 42803U 17039A   25228.56123574  .00000153  00000+0  47446-4 0  9996
2 42803  86.3932  89.5214 0002121  83.4951 276.6486 14.34217299427526
IRIDIUM 123             
1 42804U 17039B   25229.43994097  .00000017  00000+0 -85523-6 0  9990
2 42804  86.3979 120.6413 0001937  92.7199 267.4218 14.34217654426410
IRIDIUM 120             
1 42805U 17039C   25229.53165759  .00000075  00000+0  19747-4 0  9993
2 42805  86.3915  88.9371 0002307  93.4651 266.6808 14.34217631427651
IRIDIUM 115             
1 42806U 17039D   25228.54819306  .00000278  00000+0  76760-4 0  9991
2 42806  86.4454  89.4360 0001943 106.2812 253.8603 14.43281900430321
IRIDIUM 118             
1 42807U 17039E   25229.12280858  .00000179  00000+0  57031-4 0  9991
2 42807  86.3977 120.7731 0002145  80.0710 280.0728 14.34217111426376
IRIDIUM 117             
1 42808U 17039F   25229.42091301  .00000035  00000+0  54751-5 0  9996
2 42808  86.3976 120.6091 0001920  88.9379 271.2036 14.34217774426449
